STARLINK-3837           
1 52358U 22045AD  25144.92269718  .00000704  00000+0  62342-4 0  9997
2 52358  53.2181  55.4450 0001514  94.6219 265.4946 15.08837266172192
STARLINK-3853           
1 52359U 22045AE  25145.46829468  .00000201  00000+0  30715-4 0  9993
2 52359  53.2186  53.0063 0001413  88.9711 271.1443 15.08841798172273
STARLINK-3824           
1 52360U 22045AF  25145.58335648  .00498627  00000+0  10316-1 0  9995
2 52360  53.2211  37.1981 0001020  75.2799 151.1094 15.43363867  5836
STARLINK-3728           
1 52361U 22045AG  25145.45997699 -.00000681  00000+0 -24674-4 0  9998
2 52361  53.2177  53.0327 0001367  86.5753 273.5395 15.08835290172279
STARLINK-3848           
1 52362U 22045AH  25145.44249531  .00000473  00000+0  47777-4 0  9999
2 52362  53.2185  43.1120 0001319  83.6345 276.4797 15.08842144172401
STARLINK-3830           
1 52363U 22045AJ  25145.72125691  .00001686  00000+0  12401-3 0  9993
2 52363  53.2179  51.8598 0001430  91.4866 268.6290 15.08840655172315
STARLINK-3820           
1 52364U 22045AK  25145.42776538 -.00000211  00000+0  48534-5 0  9995
2 52364  53.2204  43.0895 0001475  87.7846 272.3315 15.08837418172406
STARLINK-3874           
1 52365U 22045AL  25145.44985020  .00000423  00000+0  44630-4 0  9992
2 52365  53.2182  43.0783 0001282  84.0423 276.0715 15.08844366172400
STARLINK-3808           
1 52366U 22045AM  25145.10025894 -.00001145  00000+0 -53881-4 0  9992
2 52366  53.2186  44.6462 0001481  85.9212 274.1950 15.08833465172355
STARLINK-3817           
1 52367U 22045AN  25145.43881875 -.00000025  00000+0  16490-4 0  9998
2 52367  53.2181  43.1279 0001354  91.3182 268.7965 15.08835413172403
STARLINK-3834           
1 52368U 22045AP  25145.68538037  .00000078  00000+0  22967-4 0  9998
2 52368  53.2189  42.0218 0001413  92.2676 267.8478 15.08832434172439
STARLINK-3841           
1 52369U 22045AQ  25144.90522501  .00001865  00000+0  13527-3 0  9998
2 52369  53.2192  45.5212 0001299  88.1968 271.9173 15.08837371172327
STARLINK-3827           
1 52370U 22045AR  25145.69375827 -.00007892  00000+0 -47913-3 0  9998
2 52370  53.2195  41.9940 0002003  92.2813 267.8409 15.08777739172449
STARLINK-3798           
1 52371U 22045AS  25145.42505734  .00000560  00000+0  53265-4 0  9993
2 52371  53.2186  43.1996 0001398  88.9398 271.1755 15.08835950172397
STARLINK-3796           
1 52372U 22045AT  25145.41673614  .00000499  00000+0  49424-4 0  9999
2 52372  53.2195  43.2285 0001422  95.6824 264.4330 15.08838114172396
STARLINK-3550           
1 52373U 22045AU  25145.40569801  .00000149  00000+0  27467-4 0  9996
2 52373  53.2183  43.2764 0001261  92.1144 267.9993 15.08837547172408
STARLINK-3762           
1 52374U 22045AV  25145.40937766  .00000488  00000+0  48746-4 0  9995
2 52374  53.2184  43.2618 0001355  92.9708 267.1439 15.08836578172406
STARLINK-3785           
1 52375U 22045AW  25145.41305194  .00000591  00000+0  55245-4 0  9998
2 52375  53.2178  43.2428 0000884  75.6088 284.5003 15.08828114172401
STARLINK-3767           
1 52376U 22045AX  25145.00457352  .00000068  00000+0  22375-4 0  9995
2 52376  53.2191  45.0784 0001514  93.5116 266.6049 15.08844739172349
STARLINK-3805           
1 52377U 22045AY  25145.42412529  .00000066  00000+0  22236-4 0  9993
2 52377  53.2180  43.4143 0001387  80.9728 279.1421 15.08836140172391
STARLINK-3806           
1 52378U 22045AZ  25145.72585369  .00000905  00000+0  74980-4 0  9995
2 52378  53.2179  41.8388 0001312  96.9091 263.2051 15.08826710172453
STARLINK-3800           
1 52379U 22045BA  25145.13337222  .00000805  00000+0  68636-4 0  9994
2 52379  53.2177  44.4985 0001445  92.0429 268.0729 15.08841051172363
STARLINK-3793           
1 52380U 22045BB  25145.37717836  .00001900  00000+0  13746-3 0  9993
2 52380  53.2185  33.4357 0001256  97.0604 263.0531 15.08831644172537
STARLINK-3799           
1 52382U 22045BD  25145.05609491 -.00002945  00000+0 -16698-3 0  9998
2 52382  53.2178  44.8559 0001522  91.6411 268.4755 15.08843834172354
STARLINK-3811           
1 52383U 22045BE  25145.67526318 -.00001808  00000+0 -95594-4 0  9993
2 52383  53.2197  32.0947 0001295  90.1682 269.9458 15.08823556172587
STARLINK-3870           
1 52451U 22049A   25145.63385615  .00002573  00000+0  17967-3 0  9997
2 52451  53.2174 282.2511 0001056  75.3322 284.7787 15.08842654168782
STARLINK-3909           
1 52452U 22049B   25145.64487831  .00000252  00000+0  33906-4 0  9996
2 52452  53.2178 282.0784 0001222  82.4650 277.6481 15.08840586168622
STARLINK-3872           
1 52453U 22049C   25145.75897635 -.00000801  00000+0 -32226-4 0  9992
2 52453  53.2180 281.6904 0001362  97.3750 262.7397 15.08835833168806
STARLINK-3888           
1 52454U 22049D   25145.63019175  .00000626  00000+0  57420-4 0  9991
2 52454  53.2175 282.2683 0001278  73.9961 286.1171 15.08836638168783
STARLINK-3890           
1 52455U 22049E   25145.09385123 -.00000880  00000+0 -37231-4 0  9993
2 52455  53.2172 284.6761 0001277  81.8598 278.2539 15.08830433168548
STARLINK-3896           
1 52456U 22049F   25145.75257312  .00000515  00000+0  50441-4 0  9996
2 52456  53.2172 281.7198 0001272  76.6256 283.4878 15.08839447168806
STARLINK-3899           
1 52457U 22049G   25145.35047821 -.00009747  00000+0 -59456-3 0  9997
2 52457  53.2182 283.5151 0001566  90.2926 269.8246 15.08875533168587
STARLINK-3898           
1 52458U 22049H   25145.67898102  .00006769  00000+0  44339-3 0  9992
2 52458  53.2178 282.0497 0001618  90.3725 269.7452 15.08804744168793
STARLINK-3856           
1 52459U 22049J   25145.73045544  .00000231  00000+0  32585-4 0  9993
2 52459  53.2172 271.8194 0001332  85.5244 274.5900 15.08841455168931
STARLINK-3900           
1 52461U 22049L   25145.59521229  .00000434  00000+0  45378-4 0  9998
2 52461  53.2169 262.4245 0001349  88.8372 271.2775 15.08843491169059
STARLINK-3903           
1 52462U 22049M   25145.39285503  .00000072  00000+0  22622-4 0  9994
2 52462  53.2170 273.3442 0001270  90.8976 269.2162 15.08840722168722
STARLINK-3885           
1 52463U 22049N   25145.59153041  .00000062  00000+0  21964-4 0  9995
2 52463  53.2163 262.4413 0001015  85.3689 274.7419 15.08844649169054
STARLINK-3904           
1 52464U 22049P   25145.72678094 -.00000303  00000+0 -94200-6 0  9996
2 52464  53.2193 271.8376 0001369  96.4373 263.6775 15.08836722168936
STARLINK-3863           
1 52465U 22049Q   25145.58785752  .00000534  00000+0  51624-4 0  9996
2 52465  53.2167 262.4579 0001287  88.9995 271.1145 15.08831850168891
STARLINK-3873           
1 52467U 22049S   25145.38821523  .00000816  00000+0  69333-4 0  9992
2 52467  53.2183 273.3571 0001145  94.7897 265.3225 15.08838685168722
STARLINK-3864           
1 52468U 22049T   25145.77093653 -.00000307  00000+0 -11760-5 0  9990
2 52468  53.2176 271.6377 0001317  88.6067 271.5076 15.08834969168940
STARLINK-3828           
1 52469U 22049U   25145.64581926  .00000506  00000+0  49884-4 0  9998
2 52469  53.2189 272.2085 0001334  92.3965 267.7180 15.08838679168929
STARLINK-3859           
1 52470U 22049V   25145.63109356 -.00000082  00000+0  12915-4 0  9997
2 52470  53.2173 272.2647 0001318  94.6816 265.4327 15.08837428168761
STARLINK-3862           
1 52471U 22049W   25145.77557052  .00000035  00000+0  20243-4 0  9993
2 52471  53.2173 271.6268 0000553  70.7437 289.3615 15.08846262168949
STARLINK-3881           
1 52472U 22049X   25145.75989390  .00001410  00000+0  10663-3 0  9998
2 52472  53.2184 271.6876 0001341  89.5993 270.5153 15.08843736168940
STARLINK-3879           
1 52473U 22049Y   25145.63477177 -.00000269  00000+0  11969-5 0  9995
2 52473  53.2190 272.2494 0001397  91.9086 268.2066 15.08844602168762
STARLINK-3855           
1 52474U 22049Z   25145.58145255 -.00000960  00000+0 -42220-4 0  9991
2 52474  53.2170 262.4969 0002010  83.7225 276.3996 15.08838302168892
STARLINK-3882           
1 52475U 22049AA  25145.64952530 -.00000742  00000+0 -28535-4 0  9992
2 52475  53.2182 272.4053 0001345  92.8962 267.2184 15.08834202168769
STARLINK-3835           
1 52476U 22049AB  25145.59988001  .00000597  00000+0  55578-4 0  9992
2 52476  53.2172 262.6452 0001217  84.0161 276.0970 15.08839686170131
STARLINK-3860           
1 52477U 22049AC  25145.58418288  .00001203  00000+0  93660-4 0  9996
2 52477  53.2170 262.4755 0001441  91.6841 268.4316 15.08831669169053
STARLINK-3825           
1 52478U 22049AD  25145.62005110  .00000213  00000+0  31486-4 0  9996
2 52478  53.2167 272.3133 0001197  90.6583 269.4546 15.08842546170009
STARLINK-3878           
1 52479U 22049AE  25145.70193153 -.00001213  00000+0 -58076-4 0  9998
2 52479  53.2179 261.9489 0001702  95.2132 264.9055 15.08851698169072
STARLINK-3839           
1 52480U 22049AF  25145.61637233  .00000231  00000+0  32592-4 0  9994
2 52480  53.2170 272.3316 0001338  85.1137 275.0008 15.08843665168769
STARLINK-3813           
1 52482U 22049AH  25145.62834069  .00000018  00000+0  19236-4 0  9996
2 52482  53.2175 262.2783 0001205  92.0535 268.0596 15.08833308168907
STARLINK-3875           
1 52483U 22049AJ  25144.71201827  .00000449  00000+0  46294-4 0  9998
2 52483  53.2184 266.3918 0001317  89.0124 271.1020 15.08836161170008
STARLINK-3887           
1 52484U 22049AK  25145.74517034 -.00001014  00000+0 -45622-4 0  9998
2 52484  53.2173 271.7524 0001462  86.2312 273.8848 15.08835717168942
STARLINK-3913           
1 52485U 22049AL  25145.69825662  .00000654  00000+0  59177-4 0  9999
2 52485  53.2175 261.9642 0000943 102.5351 257.5747 15.08836116169071
STARLINK-3918           
1 52486U 22049AM  25145.60533668 -.00000186  00000+0  63672-5 0  9990
2 52486  53.2172 272.3791 0001182  88.8399 271.2728 15.08837343168922
STARLINK-3902           
1 52487U 22049AN  25145.04691033  .00000634  00000+0  57909-4 0  9992
2 52487  53.2191 264.9940 0001358  90.4936 269.6212 15.08839422170054
